{
  "norad_id": 65740,
  "name": "STARLINK-35130",
  "history": [
    {
      "epoch": "2026-03-28T18:01:03.978336Z",
      "apogee_km": 476.1433435107401,
      "perigee_km": 474.26169061293604,
      "latitude_deg": -2.8368404820033452e-05,
      "longitude_deg": 147.80250300290857,
      "height_km": 475.64635331211036,
      "semi_major_axis_km": 6853.339517061838,
      "eccentricity": 0.00013728,
      "inclination_deg": 53.1591,
      "raan_deg": 244.2358,
      "arg_perigee_deg": 61.1303,
      "mean_anomaly_deg": 298.9835,
      "mean_motion_rev_day": 15.30204204
    },
    {
      "epoch": "2026-03-30T02:56:11.173056Z",
      "apogee_km": 476.19034608977654,
      "perigee_km": 474.21795450672016,
      "latitude_deg": 3.565070929234078e-05,
      "longitude_deg": 6.29675171242297,
      "height_km": 476.07908933929576,
      "semi_major_axis_km": 6853.341150298248,
      "eccentricity": 0.0001439,
      "inclination_deg": 53.1591,
      "raan_deg": 237.8619,
      "arg_perigee_deg": 88.6751,
      "mean_anomaly_deg": 271.4415,
      "mean_motion_rev_day": 15.30203657
    },
    {
      "epoch": "2026-03-30T02:56:11.173920Z",
      "apogee_km": 476.19048315659893,
      "perigee_km": 474.2178174398978,
      "latitude_deg": 3.380579227906333e-05,
      "longitude_deg": 6.296746727981892,
      "height_km": 476.07908617003363,
      "semi_major_axis_km": 6853.341150298248,
      "eccentricity": 0.00014392,
      "inclination_deg": 53.1591,
      "raan_deg": 237.8619,
      "arg_perigee_deg": 88.6751,
      "mean_anomaly_deg": 271.4415,
      "mean_motion_rev_day": 15.30203657
    },
    {
      "epoch": "2026-03-30T13:54:33.332544Z",
      "apogee_km": 475.63186229276107,
      "perigee_km": 474.7291433112923,
      "latitude_deg": -4.174006960759745e-05,
      "longitude_deg": -160.87177440963964,
      "height_km": 476.14034637700473,
      "semi_major_axis_km": 6853.317502802026,
      "eccentricity": 6.586e-05,
      "inclination_deg": 53.1599,
      "raan_deg": 235.7364,
      "arg_perigee_deg": 97.7607,
      "mean_anomaly_deg": 262.3468,
      "mean_motion_rev_day": 15.30211577
    },
    {
      "epoch": "2026-03-30T18:36:42.882912Z",
      "apogee_km": 475.55977843238543,
      "perigee_km": 474.8108473700313,
      "latitude_deg": -1.1926649458922738e-05,
      "longitude_deg": 127.48632373750061,
      "height_km": 476.11221361997104,
      "semi_major_axis_km": 6853.322312901208,
      "eccentricity": 5.464e-05,
      "inclination_deg": 53.1584,
      "raan_deg": 234.8274,
      "arg_perigee_deg": 94.2935,
      "mean_anomaly_deg": 265.8128,
      "mean_motion_rev_day": 15.30209966
    },
    {
      "epoch": "2026-04-01T16:04:15.839328Z",
      "apogee_km": 475.61282831942935,
      "perigee_km": 474.7712395140643,
      "latitude_deg": 5.765070676965142e-05,
      "longitude_deg": 154.93301853207092,
      "height_km": 475.83344688008196,
      "semi_major_axis_km": 6853.329033916746,
      "eccentricity": 6.14e-05,
      "inclination_deg": 53.1562,
      "raan_deg": 226.0283,
      "arg_perigee_deg": 52.307,
      "mean_anomaly_deg": 307.7987,
      "mean_motion_rev_day": 15.30207715
    },
    {
      "epoch": "2026-04-02T15:35:03.346656Z",
      "apogee_km": 475.64660953186376,
      "perigee_km": 474.7773307484904,
      "latitude_deg": 5.632277630509584e-05,
      "longitude_deg": 156.7187185385191,
      "height_km": 475.7681117719237,
      "semi_major_axis_km": 6853.348970140177,
      "eccentricity": 6.342e-05,
      "inclination_deg": 53.1551,
      "raan_deg": 221.4776,
      "arg_perigee_deg": 37.9875,
      "mean_anomaly_deg": 322.1171,
      "mean_motion_rev_day": 15.30201038
    },
    {
      "epoch": "2026-04-03T15:05:51.706752Z",
      "apogee_km": 476.39330451952264,
      "perigee_km": 474.48252783289263,
      "latitude_deg": -3.365141553557735e-05,
      "longitude_deg": 158.50218889821562,
      "height_km": 475.85343372555536,
      "semi_major_axis_km": 6853.574916176208,
      "eccentricity": 0.0001394,
      "inclination_deg": 53.1588,
      "raan_deg": 216.9283,
      "arg_perigee_deg": 59.6663,
      "mean_anomaly_deg": 300.4475,
      "mean_motion_rev_day": 15.30125368
    },
    {
      "epoch": "2026-04-04T14:36:41.324832Z",
      "apogee_km": 476.14497084115374,
      "perigee_km": 474.3178628212272,
      "latitude_deg": 4.001814032944927e-05,
      "longitude_deg": 160.28012443574116,
      "height_km": 475.5874614056751,
      "semi_major_axis_km": 6853.36841683119,
      "eccentricity": 0.0001333,
      "inclination_deg": 53.1583,
      "raan_deg": 212.3786,
      "arg_perigee_deg": 53.6002,
      "mean_anomaly_deg": 306.5122,
      "mean_motion_rev_day": 15.30194525
    },
    {
      "epoch": "2026-04-05T14:07:27.858432Z",
      "apogee_km": 476.03807266060994,
      "perigee_km": 474.27266454645724,
      "latitude_deg": -5.749150328144546e-05,
      "longitude_deg": 162.06971879916946,
      "height_km": 475.67202113563934,
      "semi_major_axis_km": 6853.292368603534,
      "eccentricity": 0.0001288,
      "inclination_deg": 53.1588,
      "raan_deg": 207.8278,
      "arg_perigee_deg": 64.3956,
      "mean_anomaly_deg": 295.7177,
      "mean_motion_rev_day": 15.30219995
    },
    {
      "epoch": "2026-04-06T07:22:02.877600Z",
      "apogee_km": 476.0133358759067,
      "perigee_km": 474.3117986593443,
      "latitude_deg": -1.945646529825242e-05,
      "longitude_deg": -100.62021490787812,
      "height_km": 475.4262480773411,
      "semi_major_axis_km": 6853.299567267625,
      "eccentricity": 0.00012414,
      "inclination_deg": 53.1591,
      "raan_deg": 204.4919,
      "arg_perigee_deg": 41.7306,
      "mean_anomaly_deg": 318.3789,
      "mean_motion_rev_day": 15.30217584
    },
    {
      "epoch": "2026-04-07T13:09:03.672288Z",
      "apogee_km": 476.0381523390379,
      "perigee_km": 474.39869265486686,
      "latitude_deg": 4.1660470062336776e-05,
      "longitude_deg": 165.63864899883077,
      "height_km": 476.06417881674014,
      "semi_major_axis_km": 6853.355422496952,
      "eccentricity": 0.00011961,
      "inclination_deg": 53.1595,
      "raan_deg": 198.7272,
      "arg_perigee_deg": 86.3375,
      "mean_anomaly_deg": 273.7763,
      "mean_motion_rev_day": 15.30198877
    },
    {
      "epoch": "2026-04-08T12:39:51.672096Z",
      "apogee_km": 475.72488529495786,
      "perigee_km": 474.7286803354882,
      "latitude_deg": 4.66898182304954e-05,
      "longitude_deg": 167.42359230415906,
      "height_km": 475.94691419911464,
      "semi_major_axis_km": 6853.363782815223,
      "eccentricity": 7.268e-05,
      "inclination_deg": 53.1613,
      "raan_deg": 194.1778,
      "arg_perigee_deg": 68.9554,
      "mean_anomaly_deg": 291.1525,
      "mean_motion_rev_day": 15.30196077
    },
    {
      "epoch": "2026-04-09T12:10:39.647712Z",
      "apogee_km": 475.9483922007239,
      "perigee_km": 474.47547044840394,
      "latitude_deg": 6.0355265615458834e-05,
      "longitude_deg": 169.2060431423066,
      "height_km": 476.03741113898883,
      "semi_major_axis_km": 6853.348931324564,
      "eccentricity": 0.00010746,
      "inclination_deg": 53.1611,
      "raan_deg": 189.6258,
      "arg_perigee_deg": 84.313,
      "mean_anomaly_deg": 275.7994,
      "mean_motion_rev_day": 15.30201051
    },
    {
      "epoch": "2026-04-09T23:09:01.939392Z",
      "apogee_km": 475.9565059689112,
      "perigee_km": 474.4341067303785,
      "latitude_deg": -2.5873514143473374e-06,
      "longitude_deg": 2.039673621151266,
      "height_km": 476.00134568281885,
      "semi_major_axis_km": 6853.332306349645,
      "eccentricity": 0.00011107,
      "inclination_deg": 53.1595,
      "raan_deg": 187.503,
      "arg_perigee_deg": 83.0419,
      "mean_anomaly_deg": 277.0708,
      "mean_motion_rev_day": 15.30206619
    },
    {
      "epoch": "2026-04-11T11:12:15.446016Z",
      "apogee_km": 475.9507359239342,
      "perigee_km": 474.46081920409233,
      "latitude_deg": 5.9291516531967316e-05,
      "longitude_deg": 172.77376393238947,
      "height_km": 476.0887367550458,
      "semi_major_axis_km": 6853.342777564013,
      "eccentricity": 0.0001087,
      "inclination_deg": 53.1609,
      "raan_deg": 180.524,
      "arg_perigee_deg": 88.8113,
      "mean_anomaly_deg": 271.3013,
      "mean_motion_rev_day": 15.30203112
    }
  ]
}